{
  "type": "FeatureCollection",
  "features": [
    {
      "type": "Feature",
      "properties": {
        "norad_id": 36744,
        "name": "COMS 1",
        "group": "weather",
        "lat": 1.7104520150453515,
        "lon": 100.9594896619329,
        "alt_km": 35790.8818681359,
        "timestamp": "2025-12-09T16:56:36.222375+00:00",
        "meta_object_name": "COMS 1",
        "meta_object_id": "2010-032A",
        "meta_epoch": "2025-12-09T09:21:51.708384",
        "meta_mean_motion": 1.00271003,
        "meta_eccentricity": 0.0001123,
        "meta_inclination": 4.3332,
        "meta_ra_of_asc_node": 78.0339,
        "meta_arg_of_pericenter": 202.3345,
        "meta_mean_anomaly": 66.6545,
        "meta_ephemeris_type": 0,
        "meta_classification_type": "U",
        "meta_norad_cat_id": 36744,
        "meta_element_set_no": 999,
        "meta_rev_at_epoch": 4918,
        "meta_bstar": 0,
        "meta_mean_motion_dot": -3.43e-06,
        "meta_mean_motion_ddot": 0,
        "tle_line1": "1 36744U 10032A   25343.39018181 -.00000343  00000+0  00000+0 0  9997",
        "tle_line2": "2 36744   4.3332  78.0339 0001123 202.3345  66.6545  1.00271003 49185"
      },
      "geometry": {
        "type": "Point",
        "coordinates": [
          100.9594896619329,
          1.7104520150453515
        ]
      }
    },
    {
      "type": "Feature",
      "properties": {
        "norad_id": 37214,
        "name": "FENGYUN 3B",
        "group": "weather",
        "lat": 69.82804273021914,
        "lon": -1.8652782393413678,
        "alt_km": 829.5343257328741,
        "timestamp": "2025-12-09T16:56:36.222387+00:00",
        "meta_object_name": "FENGYUN 3B",
        "meta_object_id": "2010-059A",
        "meta_epoch": "2025-12-09T13:56:14.824032",
        "meta_mean_motion": 14.14788114,
        "meta_eccentricity": 0.0022252,
        "meta_inclination": 98.9905,
        "meta_ra_of_asc_node": 23.5357,
        "meta_arg_of_pericenter": 6.7468,
        "meta_mean_anomaly": 147.3628,
        "meta_ephemeris_type": 0,
        "meta_classification_type": "U",
        "meta_norad_cat_id": 37214,
        "meta_element_set_no": 999,
        "meta_rev_at_epoch": 78061,
        "meta_bstar": 0.00012837,
        "meta_mean_motion_dot": 2.03e-06,
        "meta_mean_motion_ddot": 0,
        "tle_line1": "1 37214U 10059A   25343.58072713  .00000203  00000+0  12837-3 0  9990",
        "tle_line2": "2 37214  98.9905  23.5357 0022252   6.7468 147.3628 14.14788114780610"
      },
      "geometry": {
        "type": "Point",
        "coordinates": [
          -1.8652782393413678,
          69.82804273021914
        ]
      }
    },
    {
      "type": "Feature",
      "properties": {
        "norad_id": 37849,
        "name": "SUOMI NPP",
        "group": "weather",
        "lat": -40.52662260323611,
        "lon": 93.48544334632825,
        "alt_km": 833.6414149292123,
        "timestamp": "2025-12-09T16:56:36.222399+00:00",
        "meta_object_name": "SUOMI NPP",
        "meta_object_id": "2011-061A",
        "meta_epoch": "2025-12-09T12:31:20.064864",
        "meta_mean_motion": 14.19512877,
        "meta_eccentricity": 0.0002141,
        "meta_inclination": 98.7769,
        "meta_ra_of_asc_node": 280.8924,
        "meta_arg_of_pericenter": 125.7694,
        "meta_mean_anomaly": 234.3681,
        "meta_ephemeris_type": 0,
        "meta_classification_type": "U",
        "meta_norad_cat_id": 37849,
        "meta_element_set_no": 999,
        "meta_rev_at_epoch": 73153,
        "meta_bstar": 0.00012535,
        "meta_mean_motion_dot": 2.2e-06,
        "meta_mean_motion_ddot": 0,
        "tle_line1": "1 37849U 11061A   25343.52176001  .00000220  00000+0  12535-3 0  9991",
        "tle_line2": "2 37849  98.7769 280.8924 0002141 125.7694 234.3681 14.19512877731535"
      },
      "geometry": {
        "type": "Point",
        "coordinates": [
          93.48544334632825,
          -40.52662260323611
        ]
      }
    },
    {
      "type": "Feature",
      "properties": {
        "norad_id": 38552,
        "name": "METEOSAT-10 (MSG-3)",
        "group": "weather",
        "lat": -4.226866333017873,
        "lon": -26.999266189181135,
        "alt_km": 35782.92672529132,
        "timestamp": "2025-12-09T16:56:36.222412+00:00",
        "meta_object_name": "METEOSAT-10 (MSG-3)",
        "meta_object_id": "2012-035B",
        "meta_epoch": "2025-12-09T01:35:17.617632",
        "meta_mean_motion": 1.0027383,
        "meta_eccentricity": 8.734e-05,
        "meta_inclination": 4.2204,
        "meta_ra_of_asc_node": 61.7307,
        "meta_arg_of_pericenter": 239.048,
        "meta_mean_anomaly": 161.2485,
        "meta_ephemeris_type": 0,
        "meta_classification_type": "U",
        "meta_norad_cat_id": 38552,
        "meta_element_set_no": 999,
        "meta_rev_at_epoch": 4895,
        "meta_bstar": 0,
        "meta_mean_motion_dot": -5e-08,
        "meta_mean_motion_ddot": 0,
        "tle_line1": "1 38552U 12035B   25343.06617613 -.00000005  00000+0  00000+0 0  9995",
        "tle_line2": "2 38552   4.2204  61.7307 0000873 239.0480 161.2485  1.00273830 48952"
      },
      "geometry": {
        "type": "Point",
        "coordinates": [
          -26.999266189181135,
          -4.226866333017873
        ]
      }
    },
    {
      "type": "Feature",
      "properties": {
        "norad_id": 38771,
        "name": "METOP-B",
        "group": "weather",
        "lat": 51.645119248991534,
        "lon": 22.584749032521522,
        "alt_km": 816.0465145900598,
        "timestamp": "2025-12-09T16:56:36.222424+00:00",
        "meta_object_name": "METOP-B",
        "meta_object_id": "2012-049A",
        "meta_epoch": "2025-12-09T09:56:22.317216",
        "meta_mean_motion": 14.21406685,
        "meta_eccentricity": 0.0002773,
        "meta_inclination": 98.6804,
        "meta_ra_of_asc_node": 33.4292,
        "meta_arg_of_pericenter": 151.3308,
        "meta_mean_anomaly": 208.8023,
        "meta_ephemeris_type": 0,
        "meta_classification_type": "U",
        "meta_norad_cat_id": 38771,
        "meta_element_set_no": 999,
        "meta_rev_at_epoch": 68630,
        "meta_bstar": 0.00014383,
        "meta_mean_motion_dot": 2.71e-06,
        "meta_mean_motion_ddot": 0,
        "tle_line1": "1 38771U 12049A   25343.41414719  .00000271  00000+0  14383-3 0  9991",
        "tle_line2": "2 38771  98.6804  33.4292 0002773 151.3308 208.8023 14.21406685686309"
      },
      "geometry": {
        "type": "Point",
        "coordinates": [
          22.584749032521522,
          51.645119248991534
        ]
      }
    },
    {
      "type": "Feature",
      "properties": {
        "norad_id": 39216,
        "name": "INSAT-3D",
        "group": "weather",
        "lat": 0.44704556399008516,
        "lon": 102.37111054341669,
        "alt_km": 35791.941455324115,
        "timestamp": "2025-12-09T16:56:36.222436+00:00",
        "meta_object_name": "INSAT-3D",
        "meta_object_id": "2013-038B",
        "meta_epoch": "2025-12-09T10:45:53.818848",
        "meta_mean_motion": 1.00271235,
        "meta_eccentricity": 0.0001645,
        "meta_inclination": 1.4366,
        "meta_ra_of_asc_node": 85.0219,
        "meta_arg_of_pericenter": 162.5394,
        "meta_mean_anomaly": 121.8979,
        "meta_ephemeris_type": 0,
        "meta_classification_type": "U",
        "meta_norad_cat_id": 39216,
        "meta_element_set_no": 999,
        "meta_rev_at_epoch": 4517,
        "meta_bstar": 0,
        "meta_mean_motion_dot": -3.37e-06,
        "meta_mean_motion_ddot": 0,
        "tle_line1": "1 39216U 13038B   25343.44853957 -.00000337  00000+0  00000+0 0  9990",
        "tle_line2": "2 39216   1.4366  85.0219 0001645 162.5394 121.8979  1.00271235 45179"
      },
      "geometry": {
        "type": "Point",
        "coordinates": [
          102.37111054341669,
          0.44704556399008516
        ]
      }
    },
    {
      "type": "Feature",
      "properties": {
        "norad_id": 39260,
        "name": "FENGYUN 3C",
        "group": "weather",
        "lat": 1.8755912034933104,
        "lon": -38.74627443065121,
        "alt_km": 851.9821021302987,
        "timestamp": "2025-12-09T16:56:36.222447+00:00",
        "meta_object_name": "FENGYUN 3C",
        "meta_object_id": "2013-052A",
        "meta_epoch": "2025-12-09T11:50:44.574144",
        "meta_mean_motion": 14.15694853,
        "meta_eccentricity": 0.0014101,
        "meta_inclination": 98.476,
        "meta_ra_of_asc_node": 321.3315,
        "meta_arg_of_pericenter": 205.6735,
        "meta_mean_anomaly": 154.3741,
        "meta_ephemeris_type": 0,
        "meta_classification_type": "U",
        "meta_norad_cat_id": 39260,
        "meta_element_set_no": 999,
        "meta_rev_at_epoch": 63172,
        "meta_bstar": 0.00013563,
        "meta_mean_motion_dot": 2.25e-06,
        "meta_mean_motion_ddot": 0,
        "tle_line1": "1 39260U 13052A   25343.49357146  .00000225  00000+0  13563-3 0  9996",
        "tle_line2": "2 39260  98.4760 321.3315 0014101 205.6735 154.3741 14.15694853631729"
      },
      "geometry": {
        "type": "Point",
        "coordinates": [
          -38.74627443065121,
          1.8755912034933104
        ]
      }
    }
  ]
}